{
  "type": "FeatureCollection",
  "features": [
    {
      "type": "Feature",
      "properties": {
        "norad_id": 34070,
        "name": "COSMOS 2251 DEB",
        "group": "cosmos-2251-debris",
        "lat": 4.174955216123548,
        "lon": 126.88881729986453,
        "alt_km": 649.1708344479493,
        "timestamp": "2025-12-07T22:37:43.475662+00:00",
        "meta_object_name": "COSMOS 2251 DEB",
        "meta_object_id": "1993-036KH",
        "meta_epoch": "2025-12-07T03:53:43.319616",
        "meta_mean_motion": 14.76714133,
        "meta_eccentricity": 0.0019071,
        "meta_inclination": 74.0009,
        "meta_ra_of_asc_node": 127.2209,
        "meta_arg_of_pericenter": 242.0038,
        "meta_mean_anomaly": 294.3641,
        "meta_ephemeris_type": 0,
        "meta_classification_type": "U",
        "meta_norad_cat_id": 34070,
        "meta_element_set_no": 999,
        "meta_rev_at_epoch": 88528,
        "meta_bstar": 0.0040541395,
        "meta_mean_motion_dot": 0.0002856,
        "meta_mean_motion_ddot": 0,
        "tle_line1": "1 34070U 93036KH  25341.16230694  .00028560  00000+0  40541-2 0  9997",
        "tle_line2": "2 34070  74.0009 127.2209 0019071 242.0038 294.3641 14.76714133885283"
      },
      "geometry": {
        "type": "Point",
        "coordinates": [
          126.88881729986453,
          4.174955216123548
        ]
      }
    },
    {
      "type": "Feature",
      "properties": {
        "norad_id": 34114,
        "name": "COSMOS 2251 DEB",
        "group": "cosmos-2251-debris",
        "lat": -26.441205989585086,
        "lon": -118.90751169873238,
        "alt_km": 741.6661005499764,
        "timestamp": "2025-12-07T22:37:43.475672+00:00",
        "meta_object_name": "COSMOS 2251 DEB",
        "meta_object_id": "1993-036KK",
        "meta_epoch": "2025-12-06T16:34:48.664992",
        "meta_mean_motion": 14.56252516,
        "meta_eccentricity": 0.00473466,
        "meta_inclination": 74.0595,
        "meta_ra_of_asc_node": 55.2917,
        "meta_arg_of_pericenter": 51.9304,
        "meta_mean_anomaly": 74.2216,
        "meta_ephemeris_type": 0,
        "meta_classification_type": "U",
        "meta_norad_cat_id": 34114,
        "meta_element_set_no": 999,
        "meta_rev_at_epoch": 87713,
        "meta_bstar": 0.0030477926,
        "meta_mean_motion_dot": 0.00013689,
        "meta_mean_motion_ddot": 0,
        "tle_line1": "1 34114U 93036KK  25340.69084103  .00013689  00000+0  30478-2 0  9999",
        "tle_line2": "2 34114  74.0595  55.2917 0047346  51.9304  74.2216 14.56252516877135"
      },
      "geometry": {
        "type": "Point",
        "coordinates": [
          -118.90751169873238,
          -26.441205989585086
        ]
      }
    },
    {
      "type": "Feature",
      "properties": {
        "norad_id": 34115,
        "name": "COSMOS 2251 DEB",
        "group": "cosmos-2251-debris",
        "lat": -70.44916324673697,
        "lon": -162.4638869580229,
        "alt_km": 656.1963599664759,
        "timestamp": "2025-12-07T22:37:43.475682+00:00",
        "meta_object_name": "COSMOS 2251 DEB",
        "meta_object_id": "1993-036KL",
        "meta_epoch": "2025-12-07T05:07:53.383584",
        "meta_mean_motion": 14.7935908,
        "meta_eccentricity": 0.00283074,
        "meta_inclination": 74.0075,
        "meta_ra_of_asc_node": 252.8357,
        "meta_arg_of_pericenter": 78.0605,
        "meta_mean_anomaly": 282.3742,
        "meta_ephemeris_type": 0,
        "meta_classification_type": "U",
        "meta_norad_cat_id": 34115,
        "meta_element_set_no": 999,
        "meta_rev_at_epoch": 89330,
        "meta_bstar": 0.0016767404,
        "meta_mean_motion_dot": 0.00012569,
        "meta_mean_motion_ddot": 0,
        "tle_line1": "1 34115U 93036KL  25341.21381231  .00012569  00000+0  16767-2 0  9992",
        "tle_line2": "2 34115  74.0075 252.8357 0028307  78.0605 282.3742 14.79359080893304"
      },
      "geometry": {
        "type": "Point",
        "coordinates": [
          -162.4638869580229,
          -70.44916324673697
        ]
      }
    },
    {
      "type": "Feature",
      "properties": {
        "norad_id": 34116,
        "name": "COSMOS 2251 DEB",
        "group": "cosmos-2251-debris",
        "lat": -17.571936298243575,
        "lon": -173.37532683904433,
        "alt_km": 718.2988867082731,
        "timestamp": "2025-12-07T22:37:43.475693+00:00",
        "meta_object_name": "COSMOS 2251 DEB",
        "meta_object_id": "1993-036KM",
        "meta_epoch": "2025-12-07T01:58:28.923744",
        "meta_mean_motion": 14.52929191,
        "meta_eccentricity": 0.00121991,
        "meta_inclination": 74.0398,
        "meta_ra_of_asc_node": 193.447,
        "meta_arg_of_pericenter": 269.5482,
        "meta_mean_anomaly": 252.6271,
        "meta_ephemeris_type": 0,
        "meta_classification_type": "U",
        "meta_norad_cat_id": 34116,
        "meta_element_set_no": 999,
        "meta_rev_at_epoch": 88404,
        "meta_bstar": 0.0011317196,
        "meta_mean_motion_dot": 4.643e-05,
        "meta_mean_motion_ddot": 0,
        "tle_line1": "1 34116U 93036KM  25341.08227921  .00004643  00000+0  11317-2 0  9993",
        "tle_line2": "2 34116  74.0398 193.4470 0012199 269.5482 252.6271 14.52929191884046"
      },
      "geometry": {
        "type": "Point",
        "coordinates": [
          -173.37532683904433,
          -17.571936298243575
        ]
      }
    },
    {
      "type": "Feature",
      "properties": {
        "norad_id": 34117,
        "name": "COSMOS 2251 DEB",
        "group": "cosmos-2251-debris",
        "lat": 30.700597423436747,
        "lon": 2.4747779643775645,
        "alt_km": 726.0287815255824,
        "timestamp": "2025-12-07T22:37:43.475703+00:00",
        "meta_object_name": "COSMOS 2251 DEB",
        "meta_object_id": "1993-036KN",
        "meta_epoch": "2025-12-07T07:28:29.935776",
        "meta_mean_motion": 14.39979014,
        "meta_eccentricity": 0.00544204,
        "meta_inclination": 74.04,
        "meta_ra_of_asc_node": 353.8574,
        "meta_arg_of_pericenter": 71.8987,
        "meta_mean_anomaly": 288.8085,
        "meta_ephemeris_type": 0,
        "meta_classification_type": "U",
        "meta_norad_cat_id": 34117,
        "meta_element_set_no": 999,
        "meta_rev_at_epoch": 88045,
        "meta_bstar": 0.001087454,
        "meta_mean_motion_dot": 3.459e-05,
        "meta_mean_motion_ddot": 0,
        "tle_line1": "1 34117U 93036KN  25341.31145759  .00003459  00000+0  10875-2 0  9990",
        "tle_line2": "2 34117  74.0400 353.8574 0054420  71.8987 288.8085 14.39979014880454"
      },
      "geometry": {
        "type": "Point",
        "coordinates": [
          2.4747779643775645,
          30.700597423436747
        ]
      }
    },
    {
      "type": "Feature",
      "properties": {
        "norad_id": 34118,
        "name": "COSMOS 2251 DEB",
        "group": "cosmos-2251-debris",
        "lat": -68.44749991257832,
        "lon": 125.78981300966913,
        "alt_km": 633.6806064375814,
        "timestamp": "2025-12-07T22:37:43.475714+00:00",
        "meta_object_name": "COSMOS 2251 DEB",
        "meta_object_id": "1993-036KP",
        "meta_epoch": "2025-12-06T20:01:10.742304",
        "meta_mean_motion": 14.93587617,
        "meta_eccentricity": 0.00599681,
        "meta_inclination": 73.9533,
        "meta_ra_of_asc_node": 261.2517,
        "meta_arg_of_pericenter": 93.0489,
        "meta_mean_anomaly": 323.0638,
        "meta_ephemeris_type": 0,
        "meta_classification_type": "U",
        "meta_norad_cat_id": 34118,
        "meta_element_set_no": 999,
        "meta_rev_at_epoch": 89088,
        "meta_bstar": 0.0033833403,
        "meta_mean_motion_dot": 0.00037138,
        "meta_mean_motion_ddot": 0,
        "tle_line1": "1 34118U 93036KP  25340.83415211  .00037138  00000+0  33833-2 0  9990",
        "tle_line2": "2 34118  73.9533 261.2517 0059968  93.0489 323.0638 14.93587617890882"
      },
      "geometry": {
        "type": "Point",
        "coordinates": [
          125.78981300966913,
          -68.44749991257832
        ]
      }
    },
    {
      "type": "Feature",
      "properties": {
        "norad_id": 34120,
        "name": "COSMOS 2251 DEB",
        "group": "cosmos-2251-debris",
        "lat": 31.88364061491931,
        "lon": 34.24261485908375,
        "alt_km": 901.3217126482641,
        "timestamp": "2025-12-07T22:37:43.475724+00:00",
        "meta_object_name": "COSMOS 2251 DEB",
        "meta_object_id": "1993-036KR",
        "meta_epoch": "2025-12-07T03:47:09.118752",
        "meta_mean_motion": 13.98674151,
        "meta_eccentricity": 0.01816961,
        "meta_inclination": 73.9918,
        "meta_ra_of_asc_node": 225.889,
        "meta_arg_of_pericenter": 54.8264,
        "meta_mean_anomaly": 97.9409,
        "meta_ephemeris_type": 0,
        "meta_classification_type": "U",
        "meta_norad_cat_id": 34120,
        "meta_element_set_no": 999,
        "meta_rev_at_epoch": 85902,
        "meta_bstar": 0.00060589931,
        "meta_mean_motion_dot": 9.79e-06,
        "meta_mean_motion_ddot": 0,
        "tle_line1": "1 34120U 93036KR  25341.15774443  .00000979  00000+0  60590-3 0  9998",
        "tle_line2": "2 34120  73.9918 225.8890 0181696  54.8264  97.9409 13.98674151859020"
      },
      "geometry": {
        "type": "Point",
        "coordinates": [
          34.24261485908375,
          31.88364061491931
        ]
      }
    }
  ]
}